STARLINK-31971          
1 59934U 24106N   26068.13789082 -.00001393  00000+0 -41124-4 0  9996
2 59934  43.0017 332.4416 0001228 272.0986  87.9725 15.27576691100353
LIZZIESAT-2 (LS-2)      
1 62383U 24247G   26068.49140277  .00009388  00000+0  34517-3 0  9997
2 62383  44.9909 117.0823 0004092 327.5136  32.5495 15.28222796 67716
